1 53892U 22119G   22282.83334491  .00188439  00000-0  13312-2 0  9998
2 53892  53.2209 179.4164 0002039  29.7015 176.2766 15.72950985  2772